[{"OBJECT_NAME":"OBJECT K","OBJECT_ID":"2024-205K","EPOCH":"2026-03-09T22:22:01.331040","MEAN_MOTION":15.27932792,"ECCENTRICITY":0.00106729,"INCLINATION":97.417,"RA_OF_ASC_NODE":146.2172,"ARG_OF_PERICENTER":37.4736,"MEAN_ANOMALY":322.7246,"EPHEMERIS_TYPE":0,"CLASSIFICATION_TYPE":"U","NORAD_CAT_ID":61903,"ELEMENT_SET_NO":999,"REV_AT_EPOCH":7347,"BSTAR":0.00067315144,"MEAN_MOTION_DOT":0.00018331,"MEAN_MOTION_DDOT":0},{"OBJECT_NAME":"STARLINK-33902","OBJECT_ID":"2025-225L","EPOCH":"2026-03-09T13:18:38.234016","MEAN_MOTION":15.30174696,"ECCENTRICITY":0.00012771,"INCLINATION":53.1574,"RA_OF_ASC_NODE":166.5766,"ARG_OF_PERICENTER":54.8306,"MEAN_ANOMALY":305.2814,"EPHEMERIS_TYPE":0,"CLASSIFICATION_TYPE":"U","NORAD_CAT_ID":65920,"ELEMENT_SET_NO":999,"REV_AT_EPOCH":2438,"BSTAR":0.00060458211,"MEAN_MOTION_DOT":0.00017575,"MEAN_MOTION_DDOT":0}]
